{
  "norad_id": 68700,
  "name": "STARLINK-37334",
  "history": [
    {
      "epoch": "2026-04-23T17:12:45.616032Z",
      "apogee_km": 325.7862255959635,
      "perigee_km": 321.9442357971957,
      "latitude_deg": 2.3988487618336085e-05,
      "longitude_deg": 85.32213009699446,
      "height_km": 323.33957888163087,
      "semi_major_axis_km": 6702.002230696579,
      "eccentricity": 0.00028663,
      "inclination_deg": 53.1603,
      "raan_deg": 195.2726,
      "arg_perigee_deg": 41.3017,
      "mean_anomaly_deg": 318.8223,
      "mean_motion_rev_day": 15.82325802
    }
  ]
}