STARLINK-37334          
1 68700U 26081B   26113.71719463 -.00774538  00000+0 -40002-2 0  9992
2 68700  53.1603 195.2726 0002866  41.3017 318.8223 15.82325802  1498
